{"type": "FeatureCollection", "features": [ {"type": "Feature", "properties": {"norad_id": 45526, "name": "FENGYUN 1C DEB", "group": "fengyun-1c-debris", "lat": 78.79869907085786, "lon": 20.29367791197462, "alt_km": 806.9162676482765, "timestamp": "2025-12-25T07:00:34.339203+00:00", "meta": {"OBJECT_NAME": "FENGYUN 1C DEB", "OBJECT_ID": "1999-025EYR", "EPOCH": "2025-12-24T03:40:31.181088", "MEAN_MOTION": 14.26028974, "ECCENTRICITY": 0.00548774, "INCLINATION": 98.7621, "RA_OF_ASC_NODE": 70.308, "ARG_OF_PERICENTER": 190.2359, "MEAN_ANOMALY": 169.7707, "EPHEMERIS_TYPE": 0, "CLASSIFICATION_TYPE": "U", "NORAD_CAT_ID": 45526, "ELEMENT_SET_NO": 999, "REV_AT_EPOCH": 43539, "BSTAR": 0.001800182, "MEAN_MOTION_DOT": 4.324e-05, "MEAN_MOTION_DDOT": 0}, "tle": {"line1": "1 45526U 99025EYR 25358.15313867  .00004324  00000+0  18002-2 0  9999", "line2": "2 45526  98.7621  70.3080 0054877 190.2359 169.7707 14.26028974435399"}}, "geometry": {"type": "Point", "coordinates": [20.29367791197462, 78.79869907085786]}}, {"type": "Feature", "properties": {"norad_id": 45527, "name": "FENGYUN 1C DEB", "group": "fengyun-1c-debris", "lat": 24.493738806641794, "lon": 61.831434915052455, "alt_km": 847.9252807908579, "timestamp": "2025-12-25T07:00:34.339213+00:00", "meta": {"OBJECT_NAME": "FENGYUN 1C DEB", "OBJECT_ID": "1999-025EYS", "EPOCH": "2025-12-24T15:43:16.473792", "MEAN_MOTION": 14.24585668, "ECCENTRICITY": 0.00558046, "INCLINATION": 98.7383, "RA_OF_ASC_NODE": 65.2159, "ARG_OF_PERICENTER": 191.8906, "MEAN_ANOMALY": 168.096, "EPHEMERIS_TYPE": 0, "CLASSIFICATION_TYPE": "U", "NORAD_CAT_ID": 45527, "ELEMENT_SET_NO": 999, "REV_AT_EPOCH": 39749, "BSTAR": 0.0015645957, "MEAN_MOTION_DOT": 3.649e-05, "MEAN_MOTION_DDOT": 0}, "tle": {"line1": "1 45527U 99025EYS 25358.65505178  .00003649  00000+0  15646-2 0  9993", "line2": "2 45527  98.7383  65.2159 0055804 191.8906 168.0960 14.24585668397498"}}, "geometry": {"type": "Point", "coordinates": [61.831434915052455, 24.493738806641794]}}, {"type": "Feature", "properties": {"norad_id": 46440, "name": "FENGYUN 1C DEB", "group": "fengyun-1c-debris", "lat": -12.461811331415726, "lon": -155.9797858727666, "alt_km": 833.9952907273728, "timestamp": "2025-12-25T07:00:34.339224+00:00", "meta": {"OBJECT_NAME": "FENGYUN 1C DEB", "OBJECT_ID": "1999-025EYV", "EPOCH": "2025-12-20T20:25:34.567392", "MEAN_MOTION": 14.2032994, "ECCENTRICITY": 0.01764773, "INCLINATION": 98.5919, "RA_OF_ASC_NODE": 21.6185, "ARG_OF_PERICENTER": 111.8963, "MEAN_ANOMALY": 63.8759, "EPHEMERIS_TYPE": 0, "CLASSIFICATION_TYPE": "U", "NORAD_CAT_ID": 46440, "ELEMENT_SET_NO": 999, "REV_AT_EPOCH": 62484, "BSTAR": 0.00020023593, "MEAN_MOTION_DOT": 4.59e-06, "MEAN_MOTION_DDOT": 0}, "tle": {"line1": "1 46440U 99025EYV 25354.85109453  .00000459  00000+0  20024-3 0  9995", "line2": "2 46440  98.5919  21.6185 0176477 111.8963  63.8759 14.20329940624841"}}, "geometry": {"type": "Point", "coordinates": [-155.9797858727666, -12.461811331415726]}}, {"type": "Feature", "properties": {"norad_id": 46443, "name": "FENGYUN 1C DEB", "group": "fengyun-1c-debris", "lat": -38.465374514004864, "lon": 73.9042629130448, "alt_km": 792.5714058961485, "timestamp": "2025-12-25T07:00:34.339234+00:00", "meta": {"OBJECT_NAME": "FENGYUN 1C DEB", "OBJECT_ID": "1999-025EYY", "EPOCH": "2025-12-24T09:21:30.254400", "MEAN_MOTION": 14.10907038, "ECCENTRICITY": 0.00968142, "INCLINATION": 99.2138, "RA_OF_ASC_NODE": 65.5704, "ARG_OF_PERICENTER": 322.8051, "MEAN_ANOMALY": 98.5654, "EPHEMERIS_TYPE": 0, "CLASSIFICATION_TYPE": "U", "NORAD_CAT_ID": 46443, "ELEMENT_SET_NO": 999, "REV_AT_EPOCH": 59760, "BSTAR": 0.0016906012, "MEAN_MOTION_DOT": 3.122e-05, "MEAN_MOTION_DDOT": 0}, "tle": {"line1": "1 46443U 99025EYY 25358.38993350  .00003122  00000+0  16906-2 0  9990", "line2": "2 46443  99.2138  65.5704 0096814 322.8051  98.5654 14.10907038597608"}}, "geometry": {"type": "Point", "coordinates": [73.9042629130448, -38.465374514004864]}}, {"type": "Feature", "properties": {"norad_id": 46444, "name": "FENGYUN 1C DEB", "group": "fengyun-1c-debris", "lat": 15.100390847288246, "lon": -1.362539872325694, "alt_km": 810.768423885188, "timestamp": "2025-12-25T07:00:34.339245+00:00", "meta": {"OBJECT_NAME": "FENGYUN 1C DEB", "OBJECT_ID": "1999-025EYZ", "EPOCH": "2025-12-18T06:45:06.153408", "MEAN_MOTION": 14.27169033, "ECCENTRICITY": 0.00846398, "INCLINATION": 98.5129, "RA_OF_ASC_NODE": 354.1289, "ARG_OF_PERICENTER": 134.7606, "MEAN_ANOMALY": 242.101, "EPHEMERIS_TYPE": 0, "CLASSIFICATION_TYPE": "U", "NORAD_CAT_ID": 46444, "ELEMENT_SET_NO": 999, "REV_AT_EPOCH": 62661, "BSTAR": 0.00039999748, "MEAN_MOTION_DOT": 9.72e-06, "MEAN_MOTION_DDOT": 0}, "tle": {"line1": "1 46444U 99025EYZ 25352.28132122  .00000972  00000+0  40000-3 0  9999", "line2": "2 46444  98.5129 354.1289 0084639 134.7606 242.1010 14.27169033626614"}}, "geometry": {"type": "Point", "coordinates": [-1.362539872325694, 15.100390847288246]}}, {"type": "Feature", "properties": {"norad_id": 46449, "name": "FENGYUN 1C DEB", "group": "fengyun-1c-debris", "lat": 16.276142473504322, "lon": -144.0740470678643, "alt_km": 779.8735400242376, "timestamp": "2025-12-25T07:00:34.339256+00:00", "meta": {"OBJECT_NAME": "FENGYUN 1C DEB", "OBJECT_ID": "1999-025EZE", "EPOCH": "2025-11-27T19:57:02.428704", "MEAN_MOTION": 14.19021773, "ECCENTRICITY": 0.02029501, "INCLINATION": 98.6463, "RA_OF_ASC_NODE": 6.5721, "ARG_OF_PERICENTER": 314.0231, "MEAN_ANOMALY": 44.4375, "EPHEMERIS_TYPE": 0, "CLASSIFICATION_TYPE": "U", "NORAD_CAT_ID": 46449, "ELEMENT_SET_NO": 999, "REV_AT_EPOCH": 57425, "BSTAR": 0.00050383916, "MEAN_MOTION_DOT": 1.244e-05, "MEAN_MOTION_DDOT": 0}, "tle": {"line1": "1 46449U 99025EZE 25331.83127811  .00001244  00000+0  50384-3 0  9990", "line2": "2 46449  98.6463   6.5721 0202950 314.0231  44.4375 14.19021773574253"}}, "geometry": {"type": "Point", "coordinates": [-144.0740470678643, 16.276142473504322]}}, {"type": "Feature", "properties": {"norad_id": 46450, "name": "FENGYUN 1C DEB", "group": "fengyun-1c-debris", "lat": -13.784105124964528, "lon": -143.4437034040923, "alt_km": 781.1614687436195, "timestamp": "2025-12-25T07:00:34.339266+00:00", "meta": {"OBJECT_NAME": "FENGYUN 1C DEB", "OBJECT_ID": "1999-025EZF", "EPOCH": "2025-12-22T20:54:28.404576", "MEAN_MOTION": 14.0364475, "ECCENTRICITY": 0.018354, "INCLINATION": 98.08, "RA_OF_ASC_NODE": 212.4054, "ARG_OF_PERICENTER": 32.107, "MEAN_ANOMALY": 329.1123, "EPHEMERIS_TYPE": 0, "CLASSIFICATION_TYPE": "U", "NORAD_CAT_ID": 46450, "ELEMENT_SET_NO": 999, "REV_AT_EPOCH": 61261, "BSTAR": 0.0021946, "MEAN_MOTION_DOT": 3.968e-05, "MEAN_MOTION_DDOT": 0}, "tle": {"line1": "1 46450U 99025EZF 25356.87116209  .00003968  00000+0  21946-2 0  9998", "line2": "2 46450  98.0800 212.4054 0183540  32.1070 329.1123 14.03644750612619"}}, "geometry": {"type": "Point", "coordinates": [-143.4437034040923, -13.784105124964528]}}, {"type": "Feature", "properties": {"norad_id": 46451, "name": "FENGYUN 1C DEB", "group": "fengyun-1c-debris", "lat": -3.758918341424947, "lon": 18.069861716040425, "alt_km": 936.3363044403695, "timestamp": "2025-12-25T07:00:34.339277+00:00", "meta": {"OBJECT_NAME": "FENGYUN 1C DEB", "OBJECT_ID": "1999-025EZG", "EPOCH": "2025-12-24T20:01:08.378400", "MEAN_MOTION": 14.2051619, "ECCENTRICITY": 0.01710955, "INCLINATION": 98.1529, "RA_OF_ASC_NODE": 17.1076, "ARG_OF_PERICENTER": 150.631, "MEAN_ANOMALY": 26.091, "EPHEMERIS_TYPE": 0, "CLASSIFICATION_TYPE": "U", "NORAD_CAT_ID": 46451, "ELEMENT_SET_NO": 999, "REV_AT_EPOCH": 57178, "BSTAR": 0.0022212496, "MEAN_MOTION_DOT": 5.493e-05, "MEAN_MOTION_DDOT": 0}, "tle": {"line1": "1 46451U 99025EZG 25358.83412475  .00005493  00000+0  22212-2 0  9993", "line2": "2 46451  98.1529  17.1076 0171095 150.6310  26.0910 14.20516190571782"}}, "geometry": {"type": "Point", "coordinates": [18.069861716040425, -3.758918341424947]}}, {"type": "Feature", "properties": {"norad_id": 46468, "name": "FENGYUN 1C DEB", "group": "fengyun-1c-debris", "lat": 69.7535184640579, "lon": 62.127334002621105, "alt_km": 820.6488676405552, "timestamp": "2025-12-25T07:00:34.339287+00:00", "meta": {"OBJECT_NAME": "FENGYUN 1C DEB", "OBJECT_ID": "1999-025EZK", "EPOCH": "2025-12-22T17:02:48.613632", "MEAN_MOTION": 14.2480408, "ECCENTRICITY": 0.00465889, "INCLINATION": 98.8843, "RA_OF_ASC_NODE": 84.6069, "ARG_OF_PERICENTER": 202.7167, "MEAN_ANOMALY": 314.1415, "EPHEMERIS_TYPE": 0, "CLASSIFICATION_TYPE": "U", "NORAD_CAT_ID": 46468, "ELEMENT_SET_NO": 999, "REV_AT_EPOCH": 73958, "BSTAR": 0.0018930281, "MEAN_MOTION_DOT": 4.421e-05, "MEAN_MOTION_DDOT": 0}, "tle": {"line1": "1 46468U 99025EZK 25356.71028488  .00004421  00000+0  18930-2 0  9995", "line2": "2 46468  98.8843  84.6069 0046588 202.7167 314.1415 14.24804080739581"}}, "geometry": {"type": "Point", "coordinates": [62.127334002621105, 69.7535184640579]}}, {"type": "Feature", "properties": {"norad_id": 46986, "name": "FENGYUN 1C DEB", "group": "fengyun-1c-debris", "lat": -2.0374016277355174, "lon": -157.58778177362075, "alt_km": 663.92185564596, "timestamp": "2025-12-25T07:00:34.339298+00:00", "meta": {"OBJECT_NAME": "FENGYUN 1C DEB", "OBJECT_ID": "1999-025EZL", "EPOCH": "2025-12-23T19:19:36.010560", "MEAN_MOTION": 14.47217412, "ECCENTRICITY": 0.01051734, "INCLINATION": 98.2364, "RA_OF_ASC_NODE": 21.2604, "ARG_OF_PERICENTER": 178.1247, "MEAN_ANOMALY": 182.0361, "EPHEMERIS_TYPE": 0, "CLASSIFICATION_TYPE": "U", "NORAD_CAT_ID": 46986, "ELEMENT_SET_NO": 999, "REV_AT_EPOCH": 63560, "BSTAR": 0.00037494838, "MEAN_MOTION_DOT": 1.421e-05, "MEAN_MOTION_DDOT": 0}, "tle": {"line1": "1 46986U 99025EZL 25357.80527790  .00001421  00000+0  37495-3 0  9996", "line2": "2 46986  98.2364  21.2604 0105173 178.1247 182.0361 14.47217412635603"}}, "geometry": {"type": "Point", "coordinates": [-157.58778177362075, -2.0374016277355174]}}]}